WORLDVIEW-1 (WV-1)      
1 32060U 07041A   26198.22410567  .00003080  00000+0  12794-3 0  9992
2 32060  97.3907 317.5471 0001719 196.9958 163.1222 15.24571679 47455
WORLDVIEW-2 (WV-2)      
1 35946U 09055A   26198.29447607  .00000044  00000+0  29047-4 0  9994
2 35946  98.4755 271.3342 0005386 124.8063 235.3631 14.37907279879977
WORLDVIEW-3 (WV-3)      
1 40115U 14048A   26198.28589225  .00000337  00000+0  45743-4 0  9994
2 40115  97.8555 272.7020 0001458 152.7669 207.3622 14.85065993646374
