{"fetched_at":"2026-07-17T17:38:44.572Z","source":"https://celestrak.org/NORAD/elements/gp.php?NAME=WORLDVIEW&FORMAT=JSON","constellation":"worldview","records":[{"OBJECT_NAME":"WORLDVIEW-1 (WV-1)","OBJECT_ID":"2007-041A","EPOCH":"2026-07-17T05:22:42.729888","CLASSIFICATION_TYPE":"U","MEAN_MOTION":15.24571679,"ECCENTRICITY":0.00017197,"INCLINATION":97.3907,"RA_OF_ASC_NODE":317.5471,"ARG_OF_PERICENTER":196.9958,"MEAN_ANOMALY":163.1222,"EPHEMERIS_TYPE":0,"NORAD_CAT_ID":32060,"ELEMENT_SET_NO":999,"REV_AT_EPOCH":4745,"BSTAR":0.00012793815,"MEAN_MOTION_DOT":0.0000308,"MEAN_MOTION_DDOT":0},{"OBJECT_NAME":"WORLDVIEW-2 (WV-2)","OBJECT_ID":"2009-055A","EPOCH":"2026-07-17T07:04:02.732448","CLASSIFICATION_TYPE":"U","MEAN_MOTION":14.37907279,"ECCENTRICITY":0.00053865,"INCLINATION":98.4755,"RA_OF_ASC_NODE":271.3342,"ARG_OF_PERICENTER":124.8063,"MEAN_ANOMALY":235.3631,"EPHEMERIS_TYPE":0,"NORAD_CAT_ID":35946,"ELEMENT_SET_NO":999,"REV_AT_EPOCH":87997,"BSTAR":0.000029046769,"MEAN_MOTION_DOT":4.4e-7,"MEAN_MOTION_DDOT":0},{"OBJECT_NAME":"WORLDVIEW-3 (WV-3)","OBJECT_ID":"2014-048A","EPOCH":"2026-07-17T06:51:41.090400","CLASSIFICATION_TYPE":"U","MEAN_MOTION":14.85065993,"ECCENTRICITY":0.00014581,"INCLINATION":97.8555,"RA_OF_ASC_NODE":272.702,"ARG_OF_PERICENTER":152.7669,"MEAN_ANOMALY":207.3622,"EPHEMERIS_TYPE":0,"NORAD_CAT_ID":40115,"ELEMENT_SET_NO":999,"REV_AT_EPOCH":64637,"BSTAR":0.000045742722,"MEAN_MOTION_DOT":0.00000337,"MEAN_MOTION_DDOT":0}]}
